ONEWEB-0461             
1 51649U 22012AD  24152.92820393  .00000086  00000+0  18877-3 0  9999
2 51649  87.9160 154.4049 0001913  87.4043 272.7307 13.17647668115616
ONEWEB-0463             
1 51650U 22012AE  24153.51829331  .00000089  00000+0  19479-3 0  9990
2 51650  87.9162 154.3340 0001930  89.9258 270.2095 13.17650470116777
ONEWEB-0464             
1 51651U 22012AF  24153.55466346  .00000126  00000+0  32525-3 0  9997
2 51651  87.8945 184.5073 0002464  94.7891 265.3518 13.10369351112975
ONEWEB-0468             
1 51652U 22012AG  24153.48494296 -.00000966  00000+0 -28033-2 0  9997
2 51652  87.8949 184.5140 0002080  94.9934 265.1431 13.10363112112936
ONEWEB-0473             
1 51653U 22012AH  24153.54636930  .00000537  00000+0  15028-2 0  9990
2 51653  87.8946 184.5051 0002117  96.2110 263.9259 13.10370346112950
ONEWEB-0474             
1 51654U 22012AJ  24152.85085446  .00000661  00000+0  18568-2 0  9994
2 51654  87.8939 184.6407 0002272  98.7919 261.3465 13.10371800111557
ONEWEB-0475             
1 51655U 22012AK  24152.77000708  .00000038  00000+0  63804-4 0  9997
2 51655  87.9162 154.4616 0002249 100.0228 260.1157 13.17647189115392
ONEWEB-0490             
1 54113U 22138A   24153.55222976 -.00000263  00000+0 -68933-3 0  9997
2 54113  87.9142  93.3524 0002241  83.1023 277.0365 13.19725270 79350
